start=new Date('2023-02-19T00:00:00.000Z').valueOf();
sats=[{"OBJECT_TYPE":"PAYLOAD","ELEMENT_SET_NO":"999","TLE_LINE1":"1 51983U 22025AD  23049.59254243  .00026871  00000-0  16996-2 0  9996","RA_OF_ASC_NODE":"4.9852","PERIOD":"95.437","EPHEMERIS_TYPE":"0","MEAN_MOTION_DOT":"0.00026871","PERIAPSIS":"538.523","MEAN_MOTION":"15.08848516","MEAN_MOTION_DDOT":"0.0000000000000","OBJECT_NAME":"STARLINK-3655","ARG_OF_PERICENTER":"85.6502","TIME_SYSTEM":"UTC","REF_FRAME":"TEME","APOAPSIS":"540.915","RCS_SIZE":"LARGE","INCLINATION":"53.2184","FILE":"3807124","OBJECT_ID":"2022-025AD","NORAD_CAT_ID":"51983","TLE_LINE2":"2 51983  53.2184   4.9852 0001729  85.6502 274.4688 15.08848516 52714","LAUNCH_DATE":"2022-03-09","COUNTRY_CODE":"US","SITE":"AFETR","SEMIMAJOR_AXIS":"6917.854","MEAN_ELEMENT_THEORY":"SGP4","CENTER_NAME":"EARTH","REV_AT_EPOCH":"5271","CLASSIFICATION_TYPE":"U","GP_ID":"225924921","MEAN_ANOMALY":"274.4688","BSTAR":"0.00169960000000","EPOCH":"2023-02-18T14:13:15.665952","ECCENTRICITY":"0.00017290","DECAY_DATE":null},{"RCS_SIZE":"LARGE","INCLINATION":"53.2154","FILE":"3807124","MEAN_MOTION_DDOT":"0.0000000000000","OBJECT_NAME":"STARLINK-3664","ARG_OF_PERICENTER":"83.5659","REF_FRAME":"TEME","TIME_SYSTEM":"UTC","APOAPSIS":"540.711","MEAN_MOTION_DOT":"0.00008852","PERIAPSIS":"538.864","MEAN_MOTION":"15.08826127","OBJECT_TYPE":"PAYLOAD","ELEMENT_SET_NO":"999","TLE_LINE1":"1 51984U 22025AE  23049.29077949  .00008852  00000-0  57376-3 0  9997","RA_OF_ASC_NODE":"6.3447","PERIOD":"95.438","EPHEMERIS_TYPE":"0","GP_ID":"225923684","BSTAR":"0.00057376000000","MEAN_ANOMALY":"276.5486","ECCENTRICITY":"0.00013350","EPOCH":"2023-02-18T06:58:43.347936","DECAY_DATE":null,"MEAN_ELEMENT_THEORY":"SGP4","CENTER_NAME":"EARTH","REV_AT_EPOCH":"5267","CLASSIFICATION_TYPE":"U","COUNTRY_CODE":"US","SITE":"AFETR","SEMIMAJOR_AXIS":"6917.923","OBJECT_ID":"2022-025AE","TLE_LINE2":"2 51984  53.2154   6.3447 0001335  83.5659 276.5486 15.08826127 52679","LAUNCH_DATE":"2022-03-09","NORAD_CAT_ID":"51984"},{"MEAN_MOTION":"15.08838297","PERIAPSIS":"538.689","MEAN_MOTION_DOT":"0.00018355","ELEMENT_SET_NO":"999","TLE_LINE1":"1 51985U 22025AF  23049.32022424  .00018355  00000-0  11684-2 0  9990","OBJECT_TYPE":"PAYLOAD","EPHEMERIS_TYPE":"0","PERIOD":"95.438","RA_OF_ASC_NODE":"6.2156","INCLINATION":"53.2153","RCS_SIZE":"LARGE","FILE":"3807124","REF_FRAME":"TEME","TIME_SYSTEM":"UTC","ARG_OF_PERICENTER":"77.3667","MEAN_MOTION_DDOT":"0.0000000000000","OBJECT_NAME":"STARLINK-3651","APOAPSIS":"540.812","SEMIMAJOR_AXIS":"6917.886","SITE":"AFETR","COUNTRY_CODE":"US","TLE_LINE2":"2 51985  53.2153   6.2156 0001535  77.3667 282.7497 15.08838297 52679","NORAD_CAT_ID":"51985","LAUNCH_DATE":"2022-03-09","OBJECT_ID":"2022-025AF","GP_ID":"225923931","MEAN_ANOMALY":"282.7497","BSTAR":"0.00116840000000","DECAY_DATE":null,"ECCENTRICITY":"0.00015350","EPOCH":"2023-02-18T07:41:07.374336","MEAN_ELEMENT_THEORY":"SGP4","CLASSIFICATION_TYPE":"U","REV_AT_EPOCH":"5267","CENTER_NAME":"EARTH"},{"OBJECT_TYPE":"PAYLOAD","ELEMENT_SET_NO":"999","TLE_LINE1":"1 51986U 22025AG  23049.15092978  .00005221  00000-0  34589-3 0  9991","RA_OF_ASC_NODE":"6.9745","PERIOD":"95.438","EPHEMERIS_TYPE":"0","MEAN_MOTION_DOT":"0.00005221","PERIAPSIS":"538.658","MEAN_MOTION":"15.08836316","MEAN_MOTION_DDOT":"0.0000000000000","OBJECT_NAME":"STARLINK-3645","ARG_OF_PERICENTER":"98.0879","REF_FRAME":"TEME","TIME_SYSTEM":"UTC","APOAPSIS":"540.855","RCS_SIZE":"LARGE","INCLINATION":"53.2162","FILE":"3807124","OBJECT_ID":"2022-025AG","NORAD_CAT_ID":"51986","TLE_LINE2":"2 51986  53.2162   6.9745 0001588  98.0879 262.0294 15.08836316 52658","LAUNCH_DATE":"2022-03-09","SITE":"AFETR","COUNTRY_CODE":"US","SEMIMAJOR_AXIS":"6917.892","MEAN_ELEMENT_THEORY":"SGP4","REV_AT_EPOCH":"5265","CENTER_NAME":"EARTH","CLASSIFICATION_TYPE":"U","GP_ID":"225925179","BSTAR":"0.00034589000000","MEAN_ANOMALY":"262.0294","ECCENTRICITY":"0.00015880","EPOCH":"2023-02-18T03:37:20.332992","DECAY_DATE":null},{"COUNTRY_CODE":"US","SITE":"AFETR","SEMIMAJOR_AXIS":"6917.859","OBJECT_ID":"2022-025AH","TLE_LINE2":"2 51987  53.2162   5.1261 0000853  66.3868 293.7213 15.08846987 52717","NORAD_CAT_ID":"51987","LAUNCH_DATE":"2022-03-09","GP_ID":"225925415","BSTAR":"0.00137740000000","MEAN_ANOMALY":"293.7213","DECAY_DATE":null,"ECCENTRICITY":"0.00008530","EPOCH":"2023-02-18T13:30:51.960096","MEAN_ELEMENT_THEORY":"SGP4","CLASSIFICATION_TYPE":"U","CENTER_NAME":"EARTH","REV_AT_EPOCH":"5271","PERIAPSIS":"539.134","MEAN_MOTION":"15.08846987","MEAN_MOTION_DOT":"0.00021705","TLE_LINE1":"1 51987U 22025AH  23049.56310139  .00021705  00000-0  13774-2 0  9996","ELEMENT_SET_NO":"999","OBJECT_TYPE":"PAYLOAD","RA_OF_ASC_NODE":"5.1261","EPHEMERIS_TYPE":"0","PERIOD":"95.437","RCS_SIZE":"LARGE","INCLINATION":"53.2162","FILE":"3807124","MEAN_MOTION_DDOT":"0.0000000000000","ARG_OF_PERICENTER":"66.3868","OBJECT_NAME":"STARLINK-3644","TIME_SYSTEM":"UTC","REF_FRAME":"TEME","APOAPSIS":"540.314"},{"RCS_SIZE":"LARGE","INCLINATION":"53.2156","FILE":"3807172","MEAN_MOTION_DDOT":"0.0000000000000","ARG_OF_PERICENTER":"81.1105","OBJECT_NAME":"STARLINK-3640","TIME_SYSTEM":"UTC","REF_FRAME":"TEME","APOAPSIS":"540.685","MEAN_MOTION_DOT":"0.00007538","MEAN_MOTION":"15.08836935","PERIAPSIS":"538.824","OBJECT_TYPE":"PAYLOAD","ELEMENT_SET_NO":"999","TLE_LINE1":"1 51988U 22025AJ  23049.67717877  .00007538  00000-0  49126-3 0  9998","RA_OF_ASC_NODE":"4.6113","PERIOD":"95.438","EPHEMERIS_TYPE":"0","MEAN_ANOMALY":"279.0039","GP_ID":"225928284","BSTAR":"0.00049126000000","EPOCH":"2023-02-18T16:15:08.245728","ECCENTRICITY":"0.00013450","DECAY_DATE":null,"MEAN_ELEMENT_THEORY":"SGP4","CENTER_NAME":"EARTH","REV_AT_EPOCH":"5384","CLASSIFICATION_TYPE":"U","SITE":"AFETR","COUNTRY_CODE":"US","SEMIMAJOR_AXIS":"6917.890","OBJECT_ID":"2022-025AJ","NORAD_CAT_ID":"51988","TLE_LINE2":"2 51988  53.2156   4.6113 0001345  81.1105 279.0039 15.08836935 53847","LAUNCH_DATE":"2022-03-09"},{"TIME_SYSTEM":"UTC","REF_FRAME":"TEME","MEAN_MOTION_DDOT":"0.0000000000000","ARG_OF_PERICENTER":"132.5732","OBJECT_NAME":"STARLINK-3642","APOAPSIS":"541.040","INCLINATION":"53.2162","RCS_SIZE":"LARGE","FILE":"3807124","OBJECT_TYPE":"PAYLOAD","TLE_LINE1":"1 51989U 22025AK  23049.29445569 -.00001434  00000-0 -72036-4 0  9991","ELEMENT_SET_NO":"999","PERIOD":"95.439","EPHEMERIS_TYPE":"0","RA_OF_ASC_NODE":"6.3199","MEAN_MOTION_DOT":"-0.00001434","MEAN_MOTION":"15.08815170","PERIAPSIS":"538.602","MEAN_ELEMENT_THEORY":"SGP4","REV_AT_EPOCH":"5267","CENTER_NAME":"EARTH","CLASSIFICATION_TYPE":"U","BSTAR":"-0.00007203600000","GP_ID":"225924426","MEAN_ANOMALY":"227.5409","EPOCH":"2023-02-18T07:04:00.971616","ECCENTRICITY":"0.00017620","DECAY_DATE":null,"LAUNCH_DATE":"2022-03-09","TLE_LINE2":"2 51989  53.2162   6.3199 0001762 132.5732 227.5409 15.08815170 52675","NORAD_CAT_ID":"51989","OBJECT_ID":"2022-025AK","SEMIMAJOR_AXIS":"6917.956","SITE":"AFETR","COUNTRY_CODE":"US"},{"DECAY_DATE":null,"EPOCH":"2023-02-18T12:40:31.353024","ECCENTRICITY":"0.00005150","GP_ID":"225924685","BSTAR":"0.00084366000000","MEAN_ANOMALY":"285.4422","CLASSIFICATION_TYPE":"U","REV_AT_EPOCH":"5298","CENTER_NAME":"EARTH","MEAN_ELEMENT_THEORY":"SGP4","COUNTRY_CODE":"US","SITE":"AFETR","SEMIMAJOR_AXIS":"6917.865","OBJECT_ID":"2022-025AL","TLE_LINE2":"2 51990  53.2171 345.2794 0000515  74.6627 285.4422 15.08845046 52984","LAUNCH_DATE":"2022-03-09","NORAD_CAT_ID":"51990","FILE":"3807124","RCS_SIZE":"LARGE","INCLINATION":"53.2171","APOAPSIS":"540.086","MEAN_MOTION_DDOT":"0.0000000000000","OBJECT_NAME":"STARLINK-3657","ARG_OF_PERICENTER":"74.6627","REF_FRAME":"TEME","TIME_SYSTEM":"UTC","PERIAPSIS":"539.374","MEAN_MOTION":"15.08845046","MEAN_MOTION_DOT":"0.00013166","RA_OF_ASC_NODE":"345.2794","EPHEMERIS_TYPE":"0","PERIOD":"95.437","ELEMENT_SET_NO":"999","TLE_LINE1":"1 51990U 22025AL  23049.52814066  .00013166  00000-0  84366-3 0  9992","OBJECT_TYPE":"PAYLOAD"},{"TLE_LINE1":"1 51991U 22025AM  23049.28708979 -.00001778  00000-0 -93643-4 0  9998","ELEMENT_SET_NO":"999","OBJECT_TYPE":"PAYLOAD","EPHEMERIS_TYPE":"0","PERIOD":"95.438","RA_OF_ASC_NODE":"6.3612","PERIAPSIS":"538.920","MEAN_MOTION":"15.08832436","MEAN_MOTION_DOT":"-0.00001778","REF_FRAME":"TEME","TIME_SYSTEM":"UTC","MEAN_MOTION_DDOT":"0.0000000000000","ARG_OF_PERICENTER":"130.3204","OBJECT_NAME":"STARLINK-3652","APOAPSIS":"540.617","INCLINATION":"53.2158","RCS_SIZE":"LARGE","FILE":"3807124","TLE_LINE2":"2 51991  53.2158   6.3612 0001227 130.3204 229.7895 15.08832436 52676","NORAD_CAT_ID":"51991","LAUNCH_DATE":"2022-03-09","OBJECT_ID":"2022-025AM","SEMIMAJOR_AXIS":"6917.904","COUNTRY_CODE":"US","SITE":"AFETR","MEAN_ELEMENT_THEORY":"SGP4","CLASSIFICATION_TYPE":"U","CENTER_NAME":"EARTH","REV_AT_EPOCH":"5267","GP_ID":"225924922","BSTAR":"-0.00009364300000","MEAN_ANOMALY":"229.7895","DECAY_DATE":null,"ECCENTRICITY":"0.00012270","EPOCH":"2023-02-18T06:53:24.557856"},{"COUNTRY_CODE":"US","SITE":"AFETR","SEMIMAJOR_AXIS":"6917.881","OBJECT_ID":"2022-025AN","NORAD_CAT_ID":"51992","TLE_LINE2":"2 51992  53.2166 345.3320 0001247  79.2338 280.8794 15.08839838 52555","LAUNCH_DATE":"2022-03-09","DECAY_DATE":null,"EPOCH":"2023-02-18T12:24:36.751392","ECCENTRICITY":"0.00012470","MEAN_ANOMALY":"280.8794","GP_ID":"225923685","BSTAR":"0.00033427000000","CLASSIFICATION_TYPE":"U","REV_AT_EPOCH":"5255","CENTER_NAME":"EARTH","MEAN_ELEMENT_THEORY":"SGP4","PERIAPSIS":"538.883","MEAN_MOTION":"15.08839838","MEAN_MOTION_DOT":"0.00005036","RA_OF_ASC_NODE":"345.3320","EPHEMERIS_TYPE":"0","PERIOD":"95.438","TLE_LINE1":"1 51992U 22025AN  23049.51709203  .00005036  00000-0  33427-3 0  9998","ELEMENT_SET_NO":"999","OBJECT_TYPE":"PAYLOAD","FILE":"3807124","RCS_SIZE":"LARGE","INCLINATION":"53.2166","APOAPSIS":"540.609","MEAN_MOTION_DDOT":"0.0000000000000","OBJECT_NAME":"STARLINK-3643","ARG_OF_PERICENTER":"79.2338","TIME_SYSTEM":"UTC","REF_FRAME":"TEME"}];
